COSMOS 2058             
1 20465U 90010A   26069.97231806  .00004899  00000+0  28885-3 0  9999
2 20465  82.4671  46.1641 0009164 340.2541  19.8333 15.11335240942432
SL-14 R/B               
1 20466U 90010B   26070.03582875  .00000486  00000+0  55980-4 0  9999
2 20466  82.4987 266.1239 0018473 297.5723  62.3615 14.83569997928682
SL-14 R/B               
1 20511U 90018B   26069.91994578  .00000634  00000+0  76456-4 0  9996
2 20511  82.5205 221.9395 0017666  88.3207 272.0031 14.82146372922767
HST                     
1 20580U 90037B   26070.18250526  .00008894  00000+0  29415-3 0  9990
2 20580  28.4721  29.8149 0001855 140.1494 219.9238 15.29510230773544
SL-16 R/B               
1 20625U 90046B   26070.04033450 -.00000216  00000+0 -86526-4 0  9999
2 20625  70.9986 295.0781 0016257 297.7656  62.1818 14.15011893848583
COSMOS 2084             
1 20663U 90055A   26070.05024556  .00002932  00000+0  21534-3 0  9991
2 20663  62.7921 330.9381 0016887 190.4078 169.6676 15.05661150936528
SL-6 R/B(2)             
1 20666U 90055D   26069.90173755  .00002544  00000+0  19859-3 0  9998
2 20666  62.7825 249.7283 0024978 347.3471  12.6998 15.03601272938378
SL-8 R/B                
1 20775U 90078B   26070.18829476  .00017367  00000+0  51168-3 0  9992
2 20775  82.9009 249.9629 0361876   8.9629 351.7816 14.89118134809522
SL-8 R/B                
1 21088U 91006B   26070.21517998  .00000082  00000+0  66841-4 0  9990
2 21088  82.9466 168.9119 0022986  34.1676 351.4711 13.77494493764285
OKEAN-3                 
1 21397U 91039A   26070.14191179  .00004400  00000+0  30920-3 0  9996
2 21397  82.5194 335.4368 0013839 332.5551  27.4943 15.04818280865255
COSMOS 2151             
1 21422U 91042A   26070.15082597  .00001895  00000+0  14960-3 0  9994
2 21422  82.4930  82.2663 0013950  59.4483 300.8115 15.00109862863419
SL-14 R/B               
1 21423U 91042B   26069.90567993  .00000622  00000+0  75710-4 0  9992
2 21423  82.4926 219.0420 0015845 234.3485 125.6254 14.81831051853255
